{
  "type": "FeatureCollection",
  "features": [
    {
      "type": "Feature",
      "properties": {
        "norad_id": 63632,
        "name": "SHENZHOU-20 (SZ-20)",
        "group": "stations",
        "lat": 6.456285321012409,
        "lon": 56.48191666357526,
        "alt_km": 383.78639027371173,
        "timestamp": "2025-12-07T09:35:08.590735+00:00",
        "meta_object_name": "SHENZHOU-20 (SZ-20)",
        "meta_object_id": "2025-082A",
        "meta_epoch": "2025-12-06T21:14:35.052288",
        "meta_mean_motion": 15.58811356,
        "meta_eccentricity": 0.00094534,
        "meta_inclination": 41.4683,
        "meta_ra_of_asc_node": 52.2413,
        "meta_arg_of_pericenter": 344.5349,
        "meta_mean_anomaly": 15.5199,
        "meta_ephemeris_type": 0,
        "meta_classification_type": "U",
        "meta_norad_cat_id": 63632,
        "meta_element_set_no": 999,
        "meta_rev_at_epoch": 25530,
        "meta_bstar": 0.00035334049,
        "meta_mean_motion_dot": 0.00027906,
        "meta_mean_motion_ddot": 0,
        "tle_line1": "1 63632U 25082A   25340.88512792  .00027906  00000+0  35334-3 0  9997",
        "tle_line2": "2 63632  41.4683  52.2413 0009453 344.5349  15.5199 15.58811356255306"
      },
      "geometry": {
        "type": "Point",
        "coordinates": [
          56.48191666357526,
          6.456285321012409
        ]
      }
    },
    {
      "type": "Feature",
      "properties": {
        "norad_id": 64751,
        "name": "PROGRESS-MS 31",
        "group": "stations",
        "lat": 50.43440541624966,
        "lon": -84.59509122297703,
        "alt_km": 412.5561624065158,
        "timestamp": "2025-12-07T09:35:08.590745+00:00",
        "meta_object_name": "PROGRESS-MS 31",
        "meta_object_id": "2025-146A",
        "meta_epoch": "2025-12-06T20:46:13.238400",
        "meta_mean_motion": 15.49374779,
        "meta_eccentricity": 0.00034973,
        "meta_inclination": 51.6304,
        "meta_ra_of_asc_node": 171.5636,
        "meta_arg_of_pericenter": 213.1314,
        "meta_mean_anomaly": 146.9456,
        "meta_ephemeris_type": 0,
        "meta_classification_type": "U",
        "meta_norad_cat_id": 64751,
        "meta_element_set_no": 999,
        "meta_rev_at_epoch": 675,
        "meta_bstar": 0.00025393652,
        "meta_mean_motion_dot": 0.0001375,
        "meta_mean_motion_ddot": 0,
        "tle_line1": "1 64751U 25146A   25340.86543100  .00013750  00000+0  25394-3 0  9993",
        "tle_line2": "2 64751  51.6304 171.5636 0003497 213.1314 146.9456 15.49374779  6750"
      },
      "geometry": {
        "type": "Point",
        "coordinates": [
          -84.59509122297703,
          50.43440541624966
        ]
      }
    },
    {
      "type": "Feature",
      "properties": {
        "norad_id": 64786,
        "name": "TIANZHOU-9",
        "group": "stations",
        "lat": 6.456286219496195,
        "lon": 56.48191770111171,
        "alt_km": 383.78639020180526,
        "timestamp": "2025-12-07T09:35:08.590756+00:00",
        "meta_object_name": "TIANZHOU-9",
        "meta_object_id": "2025-149A",
        "meta_epoch": "2025-12-06T21:14:35.052288",
        "meta_mean_motion": 15.58811356,
        "meta_eccentricity": 0.00094534,
        "meta_inclination": 41.4683,
        "meta_ra_of_asc_node": 52.2413,
        "meta_arg_of_pericenter": 344.5349,
        "meta_mean_anomaly": 15.5199,
        "meta_ephemeris_type": 0,
        "meta_classification_type": "U",
        "meta_norad_cat_id": 64786,
        "meta_element_set_no": 999,
        "meta_rev_at_epoch": 25530,
        "meta_bstar": 0.00035334049,
        "meta_mean_motion_dot": 0.00027906,
        "meta_mean_motion_ddot": 0,
        "tle_line1": "1 64786U 25149A   25340.88512792  .00027906  00000+0  35334-3 0  9992",
        "tle_line2": "2 64786  41.4683  52.2413 0009453 344.5349  15.5199 15.58811356255307"
      },
      "geometry": {
        "type": "Point",
        "coordinates": [
          56.48191770111171,
          6.456286219496195
        ]
      }
    },
    {
      "type": "Feature",
      "properties": {
        "norad_id": 65077,
        "name": "CREW DRAGON 11",
        "group": "stations",
        "lat": 50.43440511411724,
        "lon": -84.59508914508179,
        "alt_km": 412.5561623973126,
        "timestamp": "2025-12-07T09:35:08.590766+00:00",
        "meta_object_name": "CREW DRAGON 11",
        "meta_object_id": "2025-166A",
        "meta_epoch": "2025-12-06T20:46:13.238400",
        "meta_mean_motion": 15.49374779,
        "meta_eccentricity": 0.00034973,
        "meta_inclination": 51.6304,
        "meta_ra_of_asc_node": 171.5636,
        "meta_arg_of_pericenter": 213.1314,
        "meta_mean_anomaly": 146.9456,
        "meta_ephemeris_type": 0,
        "meta_classification_type": "U",
        "meta_norad_cat_id": 65077,
        "meta_element_set_no": 999,
        "meta_rev_at_epoch": 214,
        "meta_bstar": 0.00025393652,
        "meta_mean_motion_dot": 0.0001375,
        "meta_mean_motion_ddot": 0,
        "tle_line1": "1 65077U 25166A   25340.86543100  .00013750  00000+0  25394-3 0  9997",
        "tle_line2": "2 65077  51.6304 171.5636 0003497 213.1314 146.9456 15.49374779  2141"
      },
      "geometry": {
        "type": "Point",
        "coordinates": [
          -84.59508914508179,
          50.43440511411724
        ]
      }
    },
    {
      "type": "Feature",
      "properties": {
        "norad_id": 65304,
        "name": "DRAGON CRS-33",
        "group": "stations",
        "lat": 50.43440494147018,
        "lon": -84.59508795771346,
        "alt_km": 412.5561623920539,
        "timestamp": "2025-12-07T09:35:08.590778+00:00",
        "meta_object_name": "DRAGON CRS-33",
        "meta_object_id": "2025-186A",
        "meta_epoch": "2025-12-06T20:46:13.238400",
        "meta_mean_motion": 15.49374779,
        "meta_eccentricity": 0.00034973,
        "meta_inclination": 51.6304,
        "meta_ra_of_asc_node": 171.5636,
        "meta_arg_of_pericenter": 213.1314,
        "meta_mean_anomaly": 146.9456,
        "meta_ephemeris_type": 0,
        "meta_classification_type": "U",
        "meta_norad_cat_id": 65304,
        "meta_element_set_no": 999,
        "meta_rev_at_epoch": 11,
        "meta_bstar": 0.00025393652,
        "meta_mean_motion_dot": 0.0001375,
        "meta_mean_motion_ddot": 0,
        "tle_line1": "1 65304U 25186A   25340.86543100  .00013750  00000+0  25394-3 0  9992",
        "tle_line2": "2 65304  51.6304 171.5636 0003497 213.1314 146.9456 15.49374779   119"
      },
      "geometry": {
        "type": "Point",
        "coordinates": [
          -84.59508795771346,
          50.43440494147018
        ]
      }
    },
    {
      "type": "Feature",
      "properties": {
        "norad_id": 65586,
        "name": "PROGRESS-MS 32",
        "group": "stations",
        "lat": 50.43440478321021,
        "lon": -84.59508686929145,
        "alt_km": 412.5561623872354,
        "timestamp": "2025-12-07T09:35:08.590789+00:00",
        "meta_object_name": "PROGRESS-MS 32",
        "meta_object_id": "2025-204A",
        "meta_epoch": "2025-12-06T20:46:13.238400",
        "meta_mean_motion": 15.49374779,
        "meta_eccentricity": 0.00034973,
        "meta_inclination": 51.6304,
        "meta_ra_of_asc_node": 171.5636,
        "meta_arg_of_pericenter": 213.1314,
        "meta_mean_anomaly": 146.9456,
        "meta_ephemeris_type": 0,
        "meta_classification_type": "U",
        "meta_norad_cat_id": 65586,
        "meta_element_set_no": 999,
        "meta_rev_at_epoch": 27,
        "meta_bstar": 0.00025393652,
        "meta_mean_motion_dot": 0.0001375,
        "meta_mean_motion_ddot": 0,
        "tle_line1": "1 65586U 25204A   25340.86543100  .00013750  00000+0  25394-3 0  9995",
        "tle_line2": "2 65586  51.6304 171.5636 0003497 213.1314 146.9456 15.49374779   278"
      },
      "geometry": {
        "type": "Point",
        "coordinates": [
          -84.59508686929145,
          50.43440478321021
        ]
      }
    },
    {
      "type": "Feature",
      "properties": {
        "norad_id": 65616,
        "name": "CYGNUS NG-23",
        "group": "stations",
        "lat": 50.434404639337714,
        "lon": -84.59508587981824,
        "alt_km": 412.55616238285256,
        "timestamp": "2025-12-07T09:35:08.590799+00:00",
        "meta_object_name": "CYGNUS NG-23",
        "meta_object_id": "2025-208A",
        "meta_epoch": "2025-12-06T20:46:13.238400",
        "meta_mean_motion": 15.49374779,
        "meta_eccentricity": 0.00034973,
        "meta_inclination": 51.6304,
        "meta_ra_of_asc_node": 171.5636,
        "meta_arg_of_pericenter": 213.1314,
        "meta_mean_anomaly": 146.9456,
        "meta_ephemeris_type": 0,
        "meta_classification_type": "U",
        "meta_norad_cat_id": 65616,
        "meta_element_set_no": 999,
        "meta_rev_at_epoch": 22,
        "meta_bstar": 0.00025393652,
        "meta_mean_motion_dot": 0.0001375,
        "meta_mean_motion_ddot": 0,
        "tle_line1": "1 65616U 25208A   25340.86543100  .00013750  00000+0  25394-3 0  9993",
        "tle_line2": "2 65616  51.6304 171.5636 0003497 213.1314 146.9456 15.49374779   227"
      },
      "geometry": {
        "type": "Point",
        "coordinates": [
          -84.59508587981824,
          50.434404639337714
        ]
      }
    }
  ]
}